cod_localidad,id_provincia,id_departamento,categoria,provincia,departamento,localidad,nombre,direccion,piso,cp,web,latitud,longitud,tipo_latitud_longitud,fuente,sector,pantallas,butacas,tipo_de_gestion,espacio_incaa,año_actualizacion
06854100,06,06854,Salas de cine,Buenos Aires,25 de mayo,25 de mayo,Cine Teatro Español,Calle 9 entre 29 Y 30,,6660,https://www.instagram.com/teatro_espanol/,-35.430488,-60.170686,Precisa,INCAA / SInCA,Cine,1,500,Pública,No,2022
06826040,06,06826,Salas de cine,Buenos Aires,Trenque Lauquen,30 de agosto,Cine Santa Rosa De Lima,Santa Rosa De Lima 170,,6405,https://www.trenquelauquen.gov.ar,-36.278508,-62.544355,Precisa,INCAA / SInCA,Cine,1,410,Pública,No,2022
06588100,06,06588,Salas de cine,Buenos Aires,9 de julio,9 de julio,Tu Cine 9 de Julio,Robbio 840,,6500,http://9dejulio.tucine.com.ar/,-35.4462648,-60.8857887,Precisa,INCAA / SInCA,Cine,1,165,Privada,No,2022
06028010,06,06028,Salas de cine,Buenos Aires,Almirante Brown,Adrogué,Cinema Adrogue,Hipolito Yrigoyen 13200,,1846,https://www.cinemaadrogue.com/,-34.80811,-58.4024,Precisa,INCAA / SInCA,Cine,10,2505,Privada,No,2022
06028010,06,06028,Salas de cine,Buenos Aires,Almirante Brown,Adrogué,CPM Paseo Adrogue,Segui 699,,1846,https://cpmcines.com/,-34.800097,-58.396753,Precisa,INCAA / SInCA,Cine,4,710,Privada,No,2022
06035010,06,06035,Salas de cine,Buenos Aires,Avellaneda,Avellaneda,Cinemark Alto Avellaneda,Guemes 897,,1870,https://www.cinemarkhoyts.com.ar/,-34.677993,-58.36723,Precisa,INCAA / SInCA,Cine,6,1275,Privada,No,2022
06035010,06,06035,Salas de cine,Buenos Aires,Avellaneda,Avellaneda,Cinepolis Avellaneda,Autopista Bs. As. - La Plata Km 6,,1870,https://www.cinepolis.com.ar/,-34.680206,-58.332777,Precisa,INCAA / SInCA,Cine,16,3485,Privada,No,2022
06049020,06,06049,Salas de cine,Buenos Aires,Azul,Azul,Flix Cinema,Bolivar 416,,7300,http://azul.flixcinema.com.ar/,-36.77836,-59.864783,Precisa,INCAA / SInCA,Cine,1,160,Privada,No,2022
06056010,06,06056,Salas de cine,Buenos Aires,Bahía Blanca,Bahía Blanca,Cine Vision,Belgrano 153,,8000,https://www.cinesdelcentrobb.com.ar/,-38.718149,-62.262122,Precisa,INCAA / SInCA,Cine,3,907,Privada,No,2022
06056010,06,06056,Salas de cine,Buenos Aires,Bahía Blanca,Bahía Blanca,Cine Visual,Chiclana 452,,8000,http://www.cinesdelcentrobb.com.ar/,-38.722103,-62.261507,Precisa,INCAA / SInCA,Cine,2,501,Privada,No,2022
06056010,06,06056,Salas de cine,Buenos Aires,Bahía Blanca,Bahía Blanca,Cinemacenter Bahia Blanca,Av. Sarmiento 2153,,8000,http://www.cinemacenter.com.ar/,-38.698777,-62.244043,Precisa,INCAA / SInCA,Cine,7,1501,Privada,No,2022
06063010,06,06063,Salas de cine,Buenos Aires,Balcarce,Balcarce,Cine Paris 2D Balcarce,Calle 18 684,,7620,https://www.facebook.com/CineParisBalcarce/,-37.848567,-58.256225,Precisa,INCAA / SInCA,Cine,1,272,Privada,No,2022
06084020,06,06084,Salas de cine,Buenos Aires,Benito Juarez,Benito Juarez,Centro Cultural Atilio Marinelli,Otamendi y Av. San Martin,,7020,Facebook: Centro Cultural Atilio Marinelli de Benito Juárez,-37.682663,-59.816052,Precisa,INCAA / SInCA,Cine,1,350,Pública,No,2022
06105060,06,06105,Salas de cine,Buenos Aires,Bolivar,Bolivar,Cine Avenida,Av. San Martin 642,,6550,https://www.facebook.com/cineavenidabolivar/,-36.231224,-61.113367,Precisa,INCAA / SInCA,Cine,1,256,Privada,Si,2022
06756010,06,06756,Salas de cine,Buenos Aires,San Isidro,Boulogne,Cinemark Soleil,Bernardo De Yrigoyen 2647,,1609,https://www.cinemarkhoyts.com.ar,-34.490982,-58.58856,Precisa,INCAA / SInCA,Cine,6,1895,Privada,No,2022
06112010,06,06112,Salas de cine,Buenos Aires,Bragado,Bragado,Centro Cultural Florencio Constantino,Belgrano 1260,,6640,,-35.11502,-60.489391,Precisa,INCAA / SInCA,Cine,1,750,Pública,Si,2022
06840010,06,06840,Salas de cine,Buenos Aires,Tres de Febrero,Caseros,Cine Teatro Paramount,Tres De Febrero 2561,,1678,https://www.tresdefebrero.gov.ar/tema/cine-teatro-paramount/,-34.605396,-58.563977,Precisa,INCAA / SInCA,Cine,2,645,Pública,Si,2022
06168010,06,06168,Salas de cine,Buenos Aires,Castelli,Castelli,Cine Teatro Avenida,Av. 25 De Mayo 540,,7114,Facebook: Cine Teatro Avenida,-36.0899001,-57.8030217,Precisa,INCAA / SInCA,Cine,1,254,Pública,Si,2022
06210020,06,06210,Salas de cine,Buenos Aires,Chacabuco,Chacabuco,Cine Teatro Español,Pueyrredón 29,,6740,http://cinemachacabuco.com.ar/,-34.641214,-60.471635,Precisa,INCAA / SInCA,Cine,1,700,Privada,No,2022
06210020,06,06210,Salas de cine,Buenos Aires,Chacabuco,Chacabuco,Teatro Italiano Espacio INCAA,Av. Alsina 29,,6740,Facebook: Teatro Italiano - Galería de Arte,-34.6430186,-60.4700374,Precisa,INCAA / SInCA,Cine,1,289,Pública,Si,2022
06224010,06,06224,Salas de cine,Buenos Aires,Chivilcoy,Chivilcoy,Cine Español Chivilcoy,Av. Soarez 86,,6620,https://www.facebook.com/cinechivilcoy/,-34.90193,-60.015456,Precisa,INCAA / SInCA,Cine,1,500,Privada,No,2022
06224010,06,06224,Salas de cine,Buenos Aires,Chivilcoy,Chivilcoy,Metropol,Av. Ceballos 29,,6620,https://www.facebook.com/CineMetropolChivilcoy/,-34.895844,-60.020493,Precisa,INCAA / SInCA,Cine,1,500,Privada,No,2022
06224010,06,06224,Salas de cine,Buenos Aires,Chivilcoy,Chivilcoy,Tu Cine Chivilcoy,Pellegrini 225,,6620,http://chivilcoy.tucine.com.ar/,-34.8931179,-60.0160649,Precisa,INCAA / SInCA,Cine,2,348,Privada,No,2022
06840010,06,06840,Salas de cine,Buenos Aires,Tres de Febrero,Ciudadela,Nuevo Ciudadela,Av. Maipu 3927,,1702,,-34.639772,-58.54124,Precisa,INCAA / SInCA,Cine,2,350,Privada,No,2022
06175010,06,06175,Salas de cine,Buenos Aires,Colón,Colón,Cine Teatro Colon,Calle 48 Y 19,,2720,http://cineteatrocolon.com.ar,-33.906237,-61.11381,Precisa,INCAA / SInCA,Cine,1,270,Privada,No,2022
06568010,06,06560,Salas de cine,Buenos Aires,Morón,El Palomar,Cine Teatro Helios,Boulevard San Martin 3076,,1684,,-34.603921,-58.592904,Precisa,INCAA / SInCA,Cine,1,349,Privada,Si,2022
06270010,06,06270,Salas de cine,Buenos Aires,Ezeiza,Ezeiza,Canning Multiplex,Formosa 653,Piso 1,1804,https://www.multiplex.com.ar/,-34.856114,-58.504664,Precisa,INCAA / SInCA,Cine,6,1132,Privada,No,2022
06274010,06,06274,Salas de cine,Buenos Aires,Florencio Varela,Florencio Varela,Cinemacenter Florencio Varela,Av. San Martin 554,,1888,http://www.cinemacenter.com.ar/,-34.779714,-58.279417,Precisa,INCAA / SInCA,Cine,6,1327,Privada,No,2022
06301010,06,06301,Salas de cine,Buenos Aires,General Belgrano,General Belgrano,Cine Teatro Español,Larrea 688,,7223,,-35.767143,-58.495995,Precisa,INCAA / SInCA,Cine,1,378,Pública,No,2022
06315010,06,06315,Salas de cine,Buenos Aires,General Juan Madariaga,General Madariaga,Espacio INCAA Gral Madariaga,Dr. Carlos Madariaga 499,,7163,,-36.998699,-57.134121,Precisa,INCAA / SInCA,Cine,1,230,Pública,Si,2022
06427010,06,06427,Salas de cine,Buenos Aires,La Matanza,Gonzalez Catán,CPM Catan,Ruta 3 Km 29 Bj Manuel De Rosas 14457,,1759,https://cpmcines.com,-34.761032,-58.615582,Precisa,INCAA / SInCA,Cine,6,1114,Privada,No,2022
06568010,06,06560,Salas de cine,Buenos Aires,Morón,Haedo,Showcase Cinemas Haedo,Dr. Luis Guemes 393,,1706,https://www.todoshowcase.com/,-34.644068,-58.595643,Precisa,INCAA / SInCA,Cine,14,3890,Privada,No,2022
06413050,06,06413,Salas de cine,Buenos Aires,Junín,Junín,Tu Cine Junin,Jorge Newbery 263,,6000,http://www.tucine.com.ar,-34.583546,-60.945387,Precisa,INCAA / SInCA,Cine,3,453,Privada,No,2022
06441030,06,06441,Salas de cine,Buenos Aires,La Plata,La Plata,Cine Municipal Ecoselect,19 Y 51,Piso 2,1900,http://www.cultura.laplata.gov.ar,-34.926546,-57.961577,Precisa,INCAA / SInCA,Cine,1,60,Pública,Si,2022
06441030,06,06441,Salas de cine,Buenos Aires,La Plata,La Plata,Cine Municipal Select,Calle 50 entre 6 y 7,,1900,http://www.cultura.laplata.gov.ar/lugar/cine-municipal-select,-34.9142398,-57.94922616,Precisa,INCAA / SInCA,Cine,1,174,Pública,Si,2022
06441030,06,06441,Salas de cine,Buenos Aires,La Plata,La Plata,Cinema 8,Calle 8 981,,1900,http://www.cinemalaplata.com/,-34.9169959,-57.9493148,Precisa,INCAA / SInCA,Cine,3,1084,Privada,No,2022
06441030,06,06441,Salas de cine,Buenos Aires,La Plata,La Plata,Cinema City,Calle 50 723,,1900,http://www.cinemalaplata.com/,-34.9170872,-57.9524285,Precisa,INCAA / SInCA,Cine,3,640,Privada,No,2022
06441030,06,06441,Salas de cine,Buenos Aires,La Plata,La Plata,Cinema Paradiso,Calle 46 780,,1900,http://www.cinemalaplata.com,-34.915734,-57.956742,Precisa,INCAA / SInCA,Cine,4,603,Privada,No,2022
06441030,06,06441,Salas de cine,Buenos Aires,La Plata,La Plata,Cinema Rocha,Calle 49 621,,1900,http://www.cinemalaplata.com,-34.91472,-57.950898,Precisa,INCAA / SInCA,Cine,6,1613,Privada,No,2022
06441030,06,06441,Salas de cine,Buenos Aires,La Plata,La Plata,Cinema San Martin,Calle 7 923,,1900,http://www.cinemalaplata.com,-34.91532089,-57.94927541,Precisa,INCAA / SInCA,Cine,7,2184,Privada,No,2022
06434010,06,06434,Salas de cine,Buenos Aires,Lanús,Lanús,Coto Lanus,Warnes 2450,,1824,https://www.zonacines.com.ar,-34.690192,-58.419057,Precisa,INCAA / SInCA,Cine,8,2037,Privada,No,2022
06455030,06,06455,Salas de cine,Buenos Aires,Las Flores,Las Flores,San Martin,San Martin 593,,7200,http://www.cinesanmartin3d.com.ar/,-36.015599,-59.098583,Precisa,INCAA / SInCA,Cine,1,0,Privada,No,2022
06420010,06,06420,Salas de cine,Buenos Aires,La Costa,Las Toninas,Las Toninas,Calle 7 1564 Entre 36 Y 38,,7106,,-36.494604,-56.696022,Precisa,INCAA / SInCA,Cine,1,245,Privada,No,2022
06469080,06,06469,Salas de cine,Buenos Aires,Lincoln,Lincoln,Cine Club Jorge Newbery,Av. Massey 839,,6070,https://www.facebook.com/clubjorgenewberylincoln/,-34.866042,-61.527907,Precisa,INCAA / SInCA,Cine,1,483,Privada,Si,2022
06483040,06,06483,Salas de cine,Buenos Aires,Lobos,Lobos,Cine Teatro Italiano,9 De Julio 142,,7240,https://www.facebook.com/teatrocineitaliano/,-35.1848326,-59.0958551,Precisa,INCAA / SInCA,Cine,1,350,Pública,Si,2022
06515010,06,06515,Salas de cine,Buenos Aires,Malvinas Argentinas,Los Polvorines,Cinemark Malvinas Argentinas,Av. Illia 3770,,1613,https://www.cinemarkhoyts.com.ar,-34.530697,-58.703113,Precisa,INCAA / SInCA,Cine,10,2414,Privada,No,2022
06385030,06,06385,Salas de cine,Buenos Aires,General Viamonte,Los Toldos,Leonardo Favio,Mitre 841,,6015,,-35.000252,-61.037525,Precisa,INCAA / SInCA,Cine,1,330,Privada,No,2022
06497060,06,06497,Salas de cine,Buenos Aires,Luján,Luján,Cinepolis Luján,R. Payró y Mario Bravo,,6702,https://www.cinepolis.com.ar/,-34.546153,-59.109463,Precisa,INCAA / SInCA,Cine,6,1182,Privada,No,2022
06497060,06,06497,Salas de cine,Buenos Aires,Luján,Luján,Cinema Rosso,Lavalle 410,,6700,www.cinemarossolujan.com/,-34.564152,-59.115852,Precisa,INCAA / SInCA,Cine,2,197,Privada,No,2022
06511020,06,06511,Salas de cine,Buenos Aires,Maipú,Maipú,Cine Teatro Sociedad Italiana,Rivadavia 555,,7160,https://www.facebook.com/CineTeatroSociedadItalianaMaipu,-36.861231,-57.883152,Precisa,INCAA / SInCA,Cine,1,450,Privada,Si,2022
06420020,06,06420,Salas de cine,Buenos Aires,La Costa,Mar de Ajó,Atlantica California,Hipolito Irigoyen 18,,7112,https://www.facebook.com/cinecaliforniamardeajo/,-36.726598,-56.675313,Precisa,INCAA / SInCA,Cine,2,551,Privada,No,2022
06357110,06,06357,Salas de cine,Buenos Aires,General Pueyrredon,Mar del Plata,Ambassador,Cordoba 1673,,7600,http://www.cinemacenter.com.ar/,-37.999077,-57.546914,Precisa,INCAA / SInCA,Cine,4,947,Privada,No,2022
06357110,06,06357,Salas de cine,Buenos Aires,General Pueyrredon,Mar del Plata,Cine Cristal,Entre Rios 1783,,7600,,-38.002209,-57.543388,Precisa,INCAA / SInCA,Cine,2,40,Privada,No,2022
06357110,06,06357,Salas de cine,Buenos Aires,General Pueyrredon,Mar del Plata,Cines Paseo Aldrey,Alberti 1610,,7600,http://www.cinemacenter.com.ar/,-38.01162,-57.542939,Precisa,INCAA / SInCA,Cine,6,1121,Privada,No,2022
06357110,06,06357,Salas de cine,Buenos Aires,General Pueyrredon,Mar del Plata,Herodes,Belgrano 2327,,7600,,-38.002416,-57.545386,Precisa,INCAA / SInCA,Cine,2,120,Privada,No,2022
06357110,06,06357,Salas de cine,Buenos Aires,General Pueyrredon,Mar del Plata,Paseo Diagonal,Belgrano Y Diag. Pueyrredon 3058,,7600,,-37.99894,-57.552262,Precisa,INCAA / SInCA,Cine,4,687,Privada,No,2022
06357110,06,06357,Salas de cine,Buenos Aires,General Pueyrredon,Mar del Plata,T.E.Y.C.I. Cinema,Rivadavia 3050,,7600,http://www.cinemacenter.com.ar/,-37.997965,-57.552019,Precisa,INCAA / SInCA,Cine,2,487,Privada,No,2022
06357110,06,06357,Salas de cine,Buenos Aires,General Pueyrredon,Mar del Plata,Teatro Auditorium,Bv. Maritimo 2280,,7600,http://programacionauditorium.blogspot.com/,-38.006718,-57.545561,Precisa,INCAA / SInCA,Cine,3,1563,Pública,No,2022
06756010,06,06756,Salas de cine,Buenos Aires,San Isidro,Martínez,Hoyts Unicenter,Parana 3745,,1640,https://www.cinemarkhoyts.com.ar/,-34.508921,-58.523471,Precisa,INCAA / SInCA,Cine,16,3427,Privada,No,2022
06532020,06,06532,Salas de cine,Buenos Aires,Mercedes,Mercedes,Cine Mercedes,Calle 20 728,,6600,http://cinemercedes.com/,-34.652278,-59.433057,Precisa,INCAA / SInCA,Cine,1,190,Privada,No,2022
06280040,06,06280,Salas de cine,Buenos Aires,General Alvarado,Miramar,Cine Atlantico,Calle 21 1564,,7607,http://www.cineteatroatlantico.com.ar/,-38.268129,-57.841066,Precisa,INCAA / SInCA,Cine,1,902,Privada,No,2022
06560010,06,06560,Salas de cine,Buenos Aires,Moreno,Moreno,Hoyts Moreno,Av. Victorica 1128,,1744,https://www.cinemarkhoyts.com.ar/,-34.635647,-58.791968,Precisa,INCAA / SInCA,Cine,10,2476,Privada,No,2022
06568010,06,06568,Salas de cine,Buenos Aires,Morón,Morón,Hoyts Moron,Juan Manuel De Rosas 658,,1744,https://www.cinemarkhoyts.com.ar/,-34.634968,-58.629305,Precisa,INCAA / SInCA,Cine,8,1865,Privada,No,2022
06568010,06,06568,Salas de cine,Buenos Aires,Morón,Morón,T. Municipalidad G. De La Ferrere,Alte. Brown 990,,1708,http://www.moron.gob.ar,-34.651188,-58.621931,Precisa,INCAA / SInCA,Cine,1,133,Pública,Si,2022
06861010,06,06861,Salas de cine,Buenos Aires,Vicente López,Munro,Lumiton,Sargento Cabral 2354,,1605,https://lumiton.ar/,-34.527919,-58.515934,Precisa,INCAA / SInCA,Cine,1,30,Pública,No,2022
06861010,06,06861,Salas de cine,Buenos Aires,Vicente López,Munro,Showcase Norte,E. Echeverria 3750,,1605,https://www.todoshowcase.com/,-34.514341,-58.522151,Precisa,INCAA / SInCA,Cine,17,4214,Privada,No,2022
06581040,06,06581,Salas de cine,Buenos Aires,Necochea,Necochea,Cine Ocean,Calle 83 350,,7630,https://www.cinesocean.com.ar/,-38.579616,-58.731164,Precisa,INCAA / SInCA,Cine,3,1620,Privada,No,2022
06595070,06,06595,Salas de cine,Buenos Aires,Olavarría,Olavarría,Cine Paris,General Paz 2720,,7400,http://www.cineparis.com.ar,-36.894039,-60.323944,Precisa,INCAA / SInCA,Cine,2,383,Privada,No,2022
06595070,06,06595,Salas de cine,Buenos Aires,Olavarría,Olavarría,Flix Olavarria,Rivadavia 4730,,7400,http://olavarria.flixcinema.com.ar/,-36.880816,-60.304409,Precisa,INCAA / SInCA,Cine,2,660,Privada,No,2022
06861010,06,06861,Salas de cine,Buenos Aires,Vicente López,Olivos,Centro Cultural York,Juan Bautista Alberdi 895,,1636,https://www.facebook.com/cineteatroyorkolivos,-34.507715,-58.484962,Precisa,INCAA / SInCA,Cine,1,280,Pública,No,2022
06623100,06,06623,Salas de cine,Buenos Aires,Pergamino,Pergamino,Cinema Pergamino,Av. Mayo y San Nicolas,Piso 1,2700,http://vamosacinema.com/,-33.89284,-60.572327,Precisa,INCAA / SInCA,Cine,2,556,Privada,No,2022
06630020,06,06630,Salas de cine,Buenos Aires,Pila,Pila,"Cine Teatro Municipal Pila ""Padre Adolfo Anastasio""",Calle 6 y Calle 19,,7116,https://www.facebook.com/CineTeatroPila/,-36.000073,-58.145664,Precisa,INCAA / SInCA,Cine,1,178,Pública,No,2022
06638040,06,06638,Salas de cine,Buenos Aires,Pilar,Pilar,Cinepolis Pilar,Panamericana Ac. Norte Km 50,,1629,https://www.villagecines.com/,-34.455906,-58.908329,Precisa,INCAA / SInCA,Cine,9,2675,Privada,No,2022
06638040,06,06638,Salas de cine,Buenos Aires,Pilar,Pilar,Palmas Multiplex,Las Magnolias 754,Piso 1,1629,https://www.multiplex.com.ar/,-34.447067,-58.867098,Precisa,INCAA / SInCA,Cine,9,1407,Privada,No,2022
06644010,06,06644,Salas de cine,Buenos Aires,Pinamar,Pinamar,Atlantica Oasis,Av. Shaw 644,,7167,http://www.cineoasis.com.ar/,-38.722103,-62.261507,Precisa,INCAA / SInCA,Cine,2,744,Privada,No,2022
06182030,06,06182,Salas de cine,Buenos Aires,Coronel de Marina L. Rosales,Punta Alta,Cinema Colon,Rivadavia 459,,8109,http://www.cinemacolon.com.ar,-38.880196,-62.076721,Precisa,INCAA / SInCA,Cine,1,390,Privada,No,2022
06658010,06,06658,Salas de cine,Buenos Aires,Quilmes,Quilmes,Cine Teatro Municipalidad De Quilmes,Mitre 721,,1878,https://www.facebook.com/INCAAQuilmes/,-34.722566,-58.253201,Precisa,INCAA / SInCA,Cine,1,415,Pública,Si,2022
06658010,06,06658,Salas de cine,Buenos Aires,Quilmes,Quilmes,Hoyts General Cinema Quilmes,Av. Calchaqui 3950,,1879,https://www.cinemarkhoyts.com.ar/,-34.759703,-58.278794,Precisa,INCAA / SInCA,Cine,12,2580,Privada,No,2022
06658010,06,06658,Salas de cine,Buenos Aires,Quilmes,Quilmes,Showcase Quilmes,Olavarria 180,,1878,https://www.todoshowcase.com/,-34.725459,-58.255294,Precisa,INCAA / SInCA,Cine,8,1730,Privada,No,2022
06805010,06,06805,Salas de cine,Buenos Aires,Tigre,Rincón de Milberg,Atlas Nordelta,Av. De Los Lagos 7010,,1617,http://www.nordeltacc.com.ar/,-34.39934,-58.653797,Precisa,INCAA / SInCA,Cine,5,969,Privada,No,2022
06686060,06,06686,Salas de cine,Buenos Aires,Rojas,Rojas,Cine Frances,Bartolomé Mitre 328,,2705,https://www.facebook.com/CineFrancesRojas/,-34.198146,-60.732001,Precisa,INCAA / SInCA,Cine,1,230,Privada,No,2022
06721020,06,06721,Salas de cine,Buenos Aires,Salliqueló,Salliqueló,Cine Teatro Soc. Italiana,Pueyrredón 77,,6339,Facebook: Cine Salliqueló - Sociedad Italiana,-36.7509085,-62.9586057,Precisa,INCAA / SInCA,Cine,1,420,Privada,No,2022
06714060,06,06714,Salas de cine,Buenos Aires,Salto,Salto,Cervantes,Alvear 65,,2741,,-34.292986,-60.255264,Precisa,INCAA / SInCA,Cine,1,220,Privada,No,2022
06539010,06,06539,Salas de cine,Buenos Aires,Merlo,San Antonio de Padua,Cinepolis Merlo,Av. Juan Domingo Peron 24056,,1718,https://www.villagecines.com/,-34.66661,-58.702902,Precisa,INCAA / SInCA,Cine,6,1315,Privada,No,2022
06420020,06,06420,Salas de cine,Buenos Aires,La Costa,San Bernardo,Atlantica Arenas,Chiozza 1776,,7111,,-36.699278,-56.677434,Precisa,INCAA / SInCA,Cine,3,1358,Privada,No,2022
06420030,06,06420,Salas de cine,Buenos Aires,La Costa,San Clemente,Gran Tuyu,Av. San Martin 181,,7105,https://www.facebook.com/cine.tuyu/,-36.356863,-56.721892,Precisa,INCAA / SInCA,Cine,1,450,Privada,No,2022
06427010,06,06427,Salas de cine,Buenos Aires,La Matanza,San Justo,Cinemark San Justo,Av. Juan Manuel De Rosas 3990,,1754,https://www.cinemarkhoyts.com.ar,-34.685116,-58.558255,Precisa,INCAA / SInCA,Cine,6,1843,Privada,No,2022
06770050,06,06770,Salas de cine,Buenos Aires,San Pedro,San Pedro,La Palma,Belgrano 961,,2930,https://www.facebook.com/MEC.LaPalma/,-33.678826,-59.668011,Precisa,INCAA / SInCA,Cine,2,471,Privada,No,2022
06420040,06,06420,Salas de cine,Buenos Aires,La Costa,Santa Teresita,Atlantica Yanel,Calle 32 372,,7107,,-36.534911,-56.694027,Precisa,INCAA / SInCA,Cine,2,635,Privada,No,2022
06420040,06,06420,Salas de cine,Buenos Aires,La Costa,Santa Teresita,Atlantico,Calle 41 258,,7107,,-36.54343,-56.700912,Precisa,INCAA / SInCA,Cine,1,1107,Privada,No,2022
06791050,06,06791,Salas de cine,Buenos Aires,Tandil,Tandil,Cinemacenter Tandil,Panama 351,,7000,http://www.cinemacenter.com.ar/,-37.324258,-59.114758,Precisa,INCAA / SInCA,Cine,4,758,Privada,No,2022
06791050,06,06791,Salas de cine,Buenos Aires,Tandil,Tandil,Espacio INCAA Unicen,Yrigoyen 662,,7000,,-37.3261317,-59.1385772,Precisa,INCAA / SInCA,Cine,1,430,Pública,Si,2022
06798020,06,06798,Salas de cine,Buenos Aires,Tapalque,Tapalque,Centro Cultural Municipal Dr. Ricardo Romera,Av. 9 De Julio Y Av. San Martin,,7303,,-36.356939,-60.025212,Precisa,INCAA / SInCA,Cine,1,264,Pública,Si,2022
06490010,06,06490,Salas de cine,Buenos Aires,Lomas de Zamora,Temperley,Hoyts Temperley,Av. Hipolito Irigoyen 10699,,1834,https://www.cinemarkhoyts.com.ar/,-34.781692,-58.406675,Precisa,INCAA / SInCA,Cine,9,2382,Privada,No,2022
06515010,06,06515,Salas de cine,Buenos Aires,Malvinas Argentinas,Tortuguitas,Cinemark Tortuguitas,Constituyentes Y Au. Panamericana Km 36.5,,1667,https://www.cinemarkhoyts.com.ar,-34.453372,-58.728969,Precisa,INCAA / SInCA,Cine,8,1905,Privada,No,2022
06826050,06,06826,Salas de cine,Buenos Aires,Trenque Lauquen,Trenque Lauquen,Cine Barrio Alegre,9 De Julio 133,Planta Baja,6400,https://www.facebook.com/cinebarrio3d/,-35.972252,-62.73485,Precisa,INCAA / SInCA,Cine,1,1200,Privada,Si,2022
06847020,06,06847,Salas de cine,Buenos Aires,Tres Lomas,Tres Lomas,Cine Teatro Español,Monteverde 257,,6409,https://www.facebook.com/cinetreslomas/,-36.457207,-62.862913,Precisa,INCAA / SInCA,Cine,1,300,Privada,Si,2022
06371010,06,06371,Salas de cine,Buenos Aires,General San Martin,Villa Ballester,Cine Teatro Jose Hernandez,Balcarce 2973,,1653,Facebook: Cine - Teatro José Hernández,-34.550658,-58.55834,Precisa,INCAA / SInCA,Cine,1,660,Privada,No,2022
06840010,06,06840,Salas de cine,Buenos Aires,Tres de Febrero,Villa Bosch,Victor Show Cinemas,El Payador 5539,,1682,https://www.facebook.com/VictorShowCinemas/,-34.58918,-58.573161,Precisa,INCAA / SInCA,Cine,3,413,Privada,No,2022
06868020,06,06868,Salas de cine,Buenos Aires,Villa Gesell,Villa Gesell,Atlantic,Paseo 105 Entre 3 Y 2,,7165,http://cineatlantic.com.ar/,-37.25143,-56.976791,Precisa,INCAA / SInCA,Cine,1,400,Privada,No,2022
06882050,06,06882,Salas de cine,Buenos Aires,Zarate,Zarate,Cine Teatro Coliseo,19 De Marzo 314,,2800,https://es-la.facebook.com/ZarateCineTeatroColiseo/,-34.097529,-59.022145,Precisa,INCAA / SInCA,Cine,1,300,Privada,No,2022
10049030,10,10049,Salas de cine,Catamarca,Capital,Catamarca,Cinemacenter Catamarca,Av. Guemes 850,,4700,http://www.cinemacenter.com.ar/,-28.475867,-65.774581,Precisa,INCAA / SInCA,Cine,5,914,Privada,No,2022
10049030,10,10049,Salas de cine,Catamarca,Capital,Catamarca,Cines Del Solar,Intendente Mamerto Medina 220,,4700,http://www.cinemacenter.com.ar/,-28.464737,-65.800675,Precisa,INCAA / SInCA,Cine,5,743,Privada,No,2022
22140060,22,22140,Salas de cine,Chaco,San Fernando,Resistencia,Cinemacenter Avalos,Av. Avalos y Av. Lavalle,,3500,http://www.cinemacenter.com.ar/,-27.438214,-58.987038,Precisa,INCAA / SInCA,Cine,5,792,Privada,No,2022
22140060,22,22140,Salas de cine,Chaco,San Fernando,Resistencia,Cinemacenter Resistencia,Av. Dr. Sabin y Av. Nicolas Avellaneda,,3500,http://www.cinemacenter.com.ar/,-27.438747,-58.987285,Precisa,INCAA / SInCA,Cine,3,690,Privada,No,2022
22140060,22,22140,Salas de cine,Chaco,San Fernando,Resistencia,Los Cines De La Costa - Sarmiento,Av. Sarmiento 2600,,3500,http://resistencia.loscinesdelacosta.com.ar/,-27.430995,-58.962672,Precisa,INCAA / SInCA,Cine,5,820,Privada,No,2022
26021030,26,26021,Salas de cine,Chubut,Escalante,Comodoro Rivadavia,Cine Coliseo,San Martin 570,,9000,http://www.cinecr.com.ar,-45.861057,-67.482581,Precisa,INCAA / SInCA,Cine,1,380,Privada,No,2022
26021030,26,26021,Salas de cine,Chubut,Escalante,Comodoro Rivadavia,Cine Teatro Español,San Martin 668,,9000,http://www.cinecr.com.ar,-45.861071,-67.484072,Precisa,INCAA / SInCA,Cine,1,463,Privada,No,2022
26035030,26,26035,Salas de cine,Chubut,Futaleufu,Esquel,Auditorio Municipal De Esquel,Belgrano 330,,9200,https://www.facebook.com/CulturaEsquel/,-42.914332,-71.33242,Precisa,INCAA / SInCA,Cine,1,243,Pública,No,2022
26007020,26,26007,Salas de cine,Chubut,Biedma,Puerto Madryn,Sociedad Italiana - Auditorium Puerto Madryn,28 De Julio 129,,9120,http://www.cinemadryn.com/,-42.766251,-65.035369,Precisa,INCAA / SInCA,Cine,2,486,Privada,No,2022
26077030,26,26077,Salas de cine,Chubut,Rawson,Rawson,Centro Cultural Jose Hernandez,Dr. Jorge Galina S/N y Mitre,,9103,,-43.299858,-65.099487,Precisa,INCAA / SInCA,Cine,1,400,Privada,Si,2022
26077040,26,26077,Salas de cine,Chubut,Rawson,Trelew,Coliseo,Belgrano 375,Piso 1,9100,,-43.252784,-65.307667,Precisa,INCAA / SInCA,Cine,1,380,Privada,No,2022
26077040,26,26077,Salas de cine,Chubut,Rawson,Trelew,Espacio INCAA Km 1460,9 De Julio 655,,9100,Facebook: Espacio INCAA Trelew,-43.253461,-65.316231,Precisa,INCAA / SInCA,Cine,1,100,Pública,Si,2022
26035060,26,26035,Salas de cine,Chubut,Futaleufu,Trevelin,Salon Municipal de Cine,28 De Julio 414,,9203,,-43.079516,-71.463135,Precisa,INCAA / SInCA,Cine,1,150,Pública,Si,2022
02000010,02,02000,Salas de cine,Ciudad Autónoma de Buenos Aires,Ciudad Autonoma de Buenos Aires,Ciudad Autónoma de Buenos Aires,Angeba,Lavalle 750,Loc 101,1047,,-34.6024845,-58.3773438,Precisa,INCAA / SInCA,Cine,4,100,Privada,No,2022
02000010,02,02000,Salas de cine,Ciudad Autónoma de Buenos Aires,Ciudad Autonoma de Buenos Aires,Ciudad Autónoma de Buenos Aires,Arte Multiplex,Av. Cabildo 2829,,1428,https://www.multiplex.com.ar/,-34.55597,-58.461705,Precisa,INCAA / SInCA,Cine,5,792,Privada,No,2022
02000010,02,02000,Salas de cine,Ciudad Autónoma de Buenos Aires,Ciudad Autonoma de Buenos Aires,Ciudad Autónoma de Buenos Aires,Atlas Caballito,Av. Rivadavia 5071,,1424,https://www.villagecines.com/,-34.618581,-58.437367,Precisa,INCAA / SInCA,Cine,9,1769,Privada,No,2022
02000010,02,02000,Salas de cine,Ciudad Autónoma de Buenos Aires,Ciudad Autonoma de Buenos Aires,Ciudad Autónoma de Buenos Aires,Atlas La Rural,Juncal 4431,,1425,www.atlascines.com,-34.5776958,-58.4211033,Precisa,INCAA / SInCA,Cine,1,130,Privada,No,2022
02000010,02,02000,Salas de cine,Ciudad Autónoma de Buenos Aires,Ciudad Autonoma de Buenos Aires,Ciudad Autónoma de Buenos Aires,Atlas Liniers,Ramón L. Falcón 7115,,1408,www.atlascines.com,-34.6401748,-58.5266769,Precisa,INCAA / SInCA,Cine,4,460,Privada,No,2022
02000010,02,02000,Salas de cine,Ciudad Autónoma de Buenos Aires,Ciudad Autonoma de Buenos Aires,Ciudad Autónoma de Buenos Aires,Atlas Paseo Alcorta,Jeronimo Salguero 3172,,1425,cineatlasweb.com.ar,-34.575385,-58.403997,Precisa,INCAA / SInCA,Cine,3,432,Privada,No,2022
02000010,02,02000,Salas de cine,Ciudad Autónoma de Buenos Aires,Ciudad Autonoma de Buenos Aires,Ciudad Autónoma de Buenos Aires,Atlas Patio Bullrich,Posadas 1245,,1001,cineatlasweb.com.ar,-34.588095,-58.383485,Precisa,INCAA / SInCA,Cine,3,585,Privada,No,2022
02000010,02,02000,Salas de cine,Ciudad Autónoma de Buenos Aires,Ciudad Autonoma de Buenos Aires,Ciudad Autónoma de Buenos Aires,Atlas Rivera Indarte,Rivera Indarte 44,,1406,cineatlasweb.com.ar,-34.629368,-58.462523,Precisa,INCAA / SInCA,Cine,5,1263,Privada,No,2022
02000010,02,02000,Salas de cine,Ciudad Autónoma de Buenos Aires,Ciudad Autonoma de Buenos Aires,Ciudad Autónoma de Buenos Aires,Belgrano Multiplex,Vuelta De Obligado 2238,,1428,https://www.multiplex.com.ar/,-34.560503,-58.456499,Precisa,INCAA / SInCA,Cine,8,2314,Privada,No,2022
02000010,02,02000,Salas de cine,Ciudad Autónoma de Buenos Aires,Ciudad Autonoma de Buenos Aires,Ciudad Autónoma de Buenos Aires,Centro Cultural San Martín Sala 1 y 2,Sarmiento 1551,5 subsuelo,1042,https://elculturalsanmartin.ar/cine/,-34.605014,-58.3887091,Precisa,INCAA / SInCA,Cine,2,192,Pública,No,2022
02000010,02,02000,Salas de cine,Ciudad Autónoma de Buenos Aires,Ciudad Autonoma de Buenos Aires,Ciudad Autónoma de Buenos Aires,Cine Amigos Del Bellas Artes,Av. Pte. Figueroa Alcorta 2280,,1425,https://www.facebook.com/amigosdelbellasartes,-34.583511,-58.392686,Precisa,INCAA / SInCA,Cine,1,235,Privada,No,2022
02000010,02,02000,Salas de cine,Ciudad Autónoma de Buenos Aires,Ciudad Autonoma de Buenos Aires,Ciudad Autónoma de Buenos Aires,Cine Box,Laprida 1423,,1425,,-34.592435,-58.405847,Precisa,INCAA / SInCA,Cine,2,40,Privada,No,2022
02000010,02,02000,Salas de cine,Ciudad Autónoma de Buenos Aires,Ciudad Autonoma de Buenos Aires,Ciudad Autónoma de Buenos Aires,Cine del Recuerdo,Av. Juan de Garay 1267,,1153,,-34.626836,-58.383669,Precisa,INCAA / SInCA,Cine,1,85,Privada,No,2022
02000010,02,02000,Salas de cine,Ciudad Autónoma de Buenos Aires,Ciudad Autonoma de Buenos Aires,Ciudad Autónoma de Buenos Aires,Cine Popular HQ,Moreno 2654,,1094,https://www.facebook.com/CulturaATENac/,-34.6135315,-58.4036714,Precisa,INCAA / SInCA,Cine,1,158,Privada,No,2022
02000010,02,02000,Salas de cine,Ciudad Autónoma de Buenos Aires,Ciudad Autonoma de Buenos Aires,Ciudad Autónoma de Buenos Aires,Cine San Francisco,Av. Gral. Paz 10652,,1408,,-34.6399054,-58.5288246,Precisa,INCAA / SInCA,Cine,1,40,Privada,No,2022
02000010,02,02000,Salas de cine,Ciudad Autónoma de Buenos Aires,Ciudad Autonoma de Buenos Aires,Ciudad Autónoma de Buenos Aires,Cinema Devoto,Jose Pedro Varela 4866,,1417,https://cinemadevoto.com.ar/,-34.611658,-58.516928,Precisa,INCAA / SInCA,Cine,8,1908,Privada,No,2022
02000010,02,02000,Salas de cine,Ciudad Autónoma de Buenos Aires,Ciudad Autonoma de Buenos Aires,Ciudad Autónoma de Buenos Aires,Cinemark Caballito,Av. La Plata 96,,1184,https://www.cinemarkhoyts.com.ar,-34.616128,-58.428999,Precisa,INCAA / SInCA,Cine,6,898,Privada,No,2022
02000010,02,02000,Salas de cine,Ciudad Autónoma de Buenos Aires,Ciudad Autonoma de Buenos Aires,Ciudad Autónoma de Buenos Aires,Cinemark Palermo,Beruti 3399,,1425,https://www.cinemarkhoyts.com.ar,-34.586565,-58.410421,Precisa,INCAA / SInCA,Cine,10,1738,Privada,No,2022
02000010,02,02000,Salas de cine,Ciudad Autónoma de Buenos Aires,Ciudad Autonoma de Buenos Aires,Ciudad Autónoma de Buenos Aires,Cinemark Puerto Madero,Av. Alicia M De Justo 1920,,1107,https://www.cinemarkhoyts.com.ar,-34.622186,-58.365288,Precisa,INCAA / SInCA,Cine,8,1379,Privada,No,2022
02000010,02,02000,Salas de cine,Ciudad Autónoma de Buenos Aires,Ciudad Autonoma de Buenos Aires,Ciudad Autónoma de Buenos Aires,Cinepolis Recoleta,Vicente Lopez 2050,,1128,https://www.villagecines.com/,-34.58922,-58.392976,Precisa,INCAA / SInCA,Cine,10,1776,Privada,No,2022
02000010,02,02000,Salas de cine,Ciudad Autónoma de Buenos Aires,Ciudad Autonoma de Buenos Aires,Ciudad Autónoma de Buenos Aires,Complejo Cultural 25 de Mayo,Av. Triunvirato 4444,,1431,https://cc25.org/,-34.5763369,-58.4836525,Precisa,INCAA / SInCA,Cine,1,500,Pública,No,2022
02000010,02,02000,Salas de cine,Ciudad Autónoma de Buenos Aires,Ciudad Autonoma de Buenos Aires,Ciudad Autónoma de Buenos Aires,Eden - Sala 2,Santa Fe 1825,,1123,,-34.595832,-58.393655,Precisa,INCAA / SInCA,Cine,1,30,Privada,No,2022
02000010,02,02000,Salas de cine,Ciudad Autónoma de Buenos Aires,Ciudad Autonoma de Buenos Aires,Ciudad Autónoma de Buenos Aires,El Páramo Cultural,Carlos Calvo 3974,,1230,https://www.facebook.com/ParamoCultural/,-34.6250548,-58.4215037,Precisa,INCAA / SInCA,Cine,1,60,Privada,No,2022
02000010,02,02000,Salas de cine,Ciudad Autónoma de Buenos Aires,Ciudad Autonoma de Buenos Aires,Ciudad Autónoma de Buenos Aires,Gaumont,Av. Rivadavia 1635,,1033,http://www.incaa.gov.ar/,-34.60898,-58.38964,Precisa,INCAA / SInCA,Cine,3,1167,Pública,Si,2022
02000010,02,02000,Salas de cine,Ciudad Autónoma de Buenos Aires,Ciudad Autonoma de Buenos Aires,Ciudad Autónoma de Buenos Aires,Hoyts Abasto,Aguero 665,,1193,https://www.cinemarkhoyts.com.ar/,-34.603485,-58.410853,Precisa,INCAA / SInCA,Cine,12,3021,Privada,No,2022
02000010,02,02000,Salas de cine,Ciudad Autónoma de Buenos Aires,Ciudad Autonoma de Buenos Aires,Ciudad Autónoma de Buenos Aires,Hoyts Panamericana,Melian 4880,,1430,https://www.cinemarkhoyts.com.ar/,-34.546344,-58.488435,Precisa,INCAA / SInCA,Cine,10,1918,Privada,No,2022
02000010,02,02000,Salas de cine,Ciudad Autónoma de Buenos Aires,Ciudad Autonoma de Buenos Aires,Ciudad Autónoma de Buenos Aires,Leopoldo Lugones,Av. Corrientes 1530,,1042,https://complejoteatral.gob.ar/cine,-34.604258,-58.388392,Precisa,INCAA / SInCA,Cine,1,212,Pública,No,2022
02000010,02,02000,Salas de cine,Ciudad Autónoma de Buenos Aires,Ciudad Autonoma de Buenos Aires,Ciudad Autónoma de Buenos Aires,Lorca,Av. Corrientes 1428,,1042,http://cinelorca.wixsite.com/cine-lorca,-34.604091,-58.38682,Precisa,INCAA / SInCA,Cine,2,452,Privada,No,2022
02000010,02,02000,Salas de cine,Ciudad Autónoma de Buenos Aires,Ciudad Autonoma de Buenos Aires,Ciudad Autónoma de Buenos Aires,Malba,Av. Figuero Alcorta 3415,Planta Baja,1425,http://www.malba.org.ar/,-34.577273,-58.403747,Precisa,INCAA / SInCA,Cine,1,224,Privada,No,2022
02000010,02,02000,Salas de cine,Ciudad Autónoma de Buenos Aires,Ciudad Autonoma de Buenos Aires,Ciudad Autónoma de Buenos Aires,Monumental Lavalle,Lavalle 780,,1047,https://www.multiplex.com.ar/,-34.602358,-58.377801,Precisa,INCAA / SInCA,Cine,7,1270,Privada,No,2022
02000010,02,02000,Salas de cine,Ciudad Autónoma de Buenos Aires,Ciudad Autonoma de Buenos Aires,Ciudad Autónoma de Buenos Aires,Nueva Victoria,Hipolito Yrigoyen 965,,1086,,-34.6094911,-58.3800409,Precisa,INCAA / SInCA,Cine,2,115,Privada,No,2022
02000010,02,02000,Salas de cine,Ciudad Autónoma de Buenos Aires,Ciudad Autonoma de Buenos Aires,Ciudad Autónoma de Buenos Aires,Popular Ecuador,Ecuador 54,,1214,,-34.6097095,-58.4090281,Precisa,INCAA / SInCA,Cine,1,147,Privada,No,2022
02000010,02,02000,Salas de cine,Ciudad Autónoma de Buenos Aires,Ciudad Autonoma de Buenos Aires,Ciudad Autónoma de Buenos Aires,Raúl González Tuñón,Av. Corrientes 1543,,1042,,-34.6040092,-58.3885434,Precisa,INCAA / SInCA,Cine,1,94,Privada,No,2022
02000010,02,02000,Salas de cine,Ciudad Autónoma de Buenos Aires,Ciudad Autonoma de Buenos Aires,Ciudad Autónoma de Buenos Aires,Showcase Cinemas Belgrano,Monroe 1655,,1428,https://www.todoshowcase.com/,-34.553878,-58.452868,Precisa,INCAA / SInCA,Cine,10,2082,Privada,No,2022
02000010,02,02000,Salas de cine,Ciudad Autónoma de Buenos Aires,Ciudad Autonoma de Buenos Aires,Ciudad Autónoma de Buenos Aires,UBA - Cosmos,Av. Corrientes 2046,,1045,https://www.facebook.com/pg/cinecosmos.uba/,-34.604629,-58.396198,Precisa,INCAA / SInCA,Cine,2,190,Pública,No,2022
02000010,02,02000,Salas de cine,Ciudad Autónoma de Buenos Aires,Ciudad Autonoma de Buenos Aires,Ciudad Autónoma de Buenos Aires,Yrigoyen,Hipolito Yrigoyen 945,,1086,,-34.6093723,-58.3796419,Precisa,INCAA / SInCA,Cine,2,64,Privada,No,2022
02000010,02,02000,Salas de cine,Ciudad Autónoma de Buenos Aires,Ciudad Autonoma de Buenos Aires,Ciudad Autónoma de Buenos Aires,Microcine Centro Cultural Recoleta,Junin 1930,,1113,http://www.centroculturalrecoleta.org/,-34.586753,-58.391672,Precisa,INCAA / SInCA,Cine,1,100,Pública,No,2022
14147010,14,14147,Salas de cine,Córdoba,Santa María,Alta Gracia,Cinemacenter Alta Gracia,Belgrano 466,,5186,https://www.cinemacenter.com.ar/,-31.658439,-64.4284228,Precisa,INCAA / SInCA,Cine,3,431,Privada,No,2022
14147010,14,14147,Salas de cine,Córdoba,Santa María,Alta Gracia,Dinosaurio Mall Alta Gracia,Gabino Ezeiza 1080,,5186,https://dinomall.com.ar/,-31.3743198,-64.1888852,Precisa,INCAA / SInCA,Cine,2,317,Privada,No,2022
14098050,14,14098,Salas de cine,Córdoba,Río Cuarto,Berrotarán,Cine Cooperativo Berrotarán,ROGELIO MARTINEZ y MARIANO MORENO,,5817,https://coopeb.com.ar/cine-teatro-multiespacio/,-32.451917,-64.388374,Precisa,INCAA / SInCA,Cine,1,419,Privada,No,2022
14014010,14,14014,Salas de cine,Córdoba,Capital,Córdoba,El Jardín de las Delicias,Bv. San Juan 49,,5000,https://cineclubmunicipal.org.ar/,-31.4209116,-64.186749,Precisa,INCAA / SInCA,Cine,1,194,Pública,No,2022
14140230,14,14140,Salas de cine,Córdoba,San Justo,La Francia,Cine Moderno,Antonio G. Almada 172,,2426,https://www.facebook.com/teatrocinemoderno100/,-31.404247,-62.632551,Precisa,INCAA / SInCA,Cine,1,441,Privada,No,2022
14140030,14,14140,Salas de cine,Córdoba,San Justo,Arroyito,Cinema 2000 Auditorium,Belgrano y Rafael Nuñez,,2434,https://www.facebook.com/pg/Cinema.2000.Arroyito.3D,-31.415409,-63.050541,Precisa,INCAA / SInCA,Cine,1,207,Privada,No,2022
14182060,14,14182,Salas de cine,Córdoba,Union,Bell Ville,Sudcinemas Bell Ville,Mitre 61,,5900,http://sudcinemas.com.ar/cine-wp/cine/bellville/,-32.630182,-62.686628,Precisa,INCAA / SInCA,Cine,2,324,Privada,No,2022
14182080,14,14182,Salas de cine,Córdoba,Union,Canals,Guillermo J. Nolter,Moreno Y Sarmiento,,2650,https://www.cinecoop3d.com/elcine.php,-33.561974,-62.881592,Precisa,INCAA / SInCA,Cine,1,200,Privada,No,2022
14091040,14,14091,Salas de cine,Córdoba,Punilla,Capilla del Monte,Enrique Muiño,Dean Funes 526,,5184,,-30.85886021,-64.52498635,Precisa,INCAA / SInCA,Cine,1,413,Privada,No,2022
14014010,14,14014,Salas de cine,Córdoba,Capital,Córdoba,Cines Gran Rex,Av. Gral. Paz 174,,5000,http://cinesgranrex.com.ar/,-31.413467,-64.185517,Precisa,INCAA / SInCA,Cine,8,1201,Privada,No,2022
14014010,14,14014,Salas de cine,Córdoba,Capital,Córdoba,Complejo Cinerama,Av. Colon 345,,5000,https://www.cinerama.com.ar/,-31.41215,-64.18797,Precisa,INCAA / SInCA,Cine,4,755,Privada,No,2022
14014010,14,14014,Salas de cine,Córdoba,Capital,Córdoba,Dinosaurio Mall 60 Cuadras,Av. Circunvalacion Agustin Tosco 4552,,5014,https://www.cinesdinomall.com.ar/,-31.455392,-64.139799,Precisa,INCAA / SInCA,Cine,2,307,Privada,No,2022
14014010,14,14014,Salas de cine,Córdoba,Capital,Córdoba,Dinosaurio Mall Alto Verde,Rodriguez Del Busto 4086,,5009,https://www.cinesdinomall.com.ar/Inicio,-31.374331,-64.222543,Precisa,INCAA / SInCA,Cine,7,1193,Privada,No,2022
14014010,14,14014,Salas de cine,Córdoba,Capital,Córdoba,Dinosaurio Mall Ruta 20,Av. Fuerza Aerea 1700,,5009,https://www.cinesdinomall.com.ar/Inicio,-31.430367,-64.213755,Precisa,INCAA / SInCA,Cine,7,1385,Privada,No,2022
14014010,14,14014,Salas de cine,Córdoba,Capital,Córdoba,Hoyts Nuevo Centro Cordoba,Duarte Quiros 1400,,5000,https://www.cinemarkhoyts.com.ar/,-31.413218,-64.204384,Precisa,INCAA / SInCA,Cine,6,960,Privada,No,2022
14014010,14,14014,Salas de cine,Córdoba,Capital,Córdoba,Hoyts Patio Olmos,Av. Velez Sarsfield 361,,5000,https://www.cinemarkhoyts.com.ar/,-31.419463,-64.188813,Precisa,INCAA / SInCA,Cine,8,986,Privada,No,2022
14014010,14,14014,Salas de cine,Córdoba,Capital,Córdoba,Showcase Cordoba,J.A. Goyechea 2851,,5009,https://www.todoshowcase.com/,-31.37983,-64.214238,Precisa,INCAA / SInCA,Cine,12,2386,Privada,No,2022
14014010,14,14014,Salas de cine,Córdoba,Capital,Córdoba,Cine Arte Córdoba,27 De Abril 275,,5000,https://www.facebook.com/CineArteCordoba/,-31.415918,-64.188507,Precisa,INCAA / SInCA,Cine,1,210,Privada,No,2022
14028050,14,14028,Salas de cine,Córdoba,Cruz del Eje,Cruz del Eje,Cine Aida,Thomas Edison 2126,,5280,,-30.721123,-64.809898,Precisa,INCAA / SInCA,Cine,1,444,Privada,No,2022
14098110,14,14098,Salas de cine,Córdoba,Rio Cuarto,Elena,Cine Teatro Coop Luz y Fuerza,Mitre 31,,5815,Facebook: Cine Teatro Cooperativo de Elena,-32.571612,-64.393329,Precisa,INCAA / SInCA,Cine,1,279,Privada,No,2022
14021140,14,14021,Salas de cine,Córdoba,Colón,Jesús María,Las Tipas Jesus Maria,Ruta Nacional 9 Esq. Corrientes,,5220,http://www.cinesmolise.com.ar/,-30.977117,-64.08461,Precisa,INCAA / SInCA,Cine,3,623,Privada,No,2022
14140300,14,14140,Salas de cine,Córdoba,San Justo,Morteros,Las Tipas Morteros,Bv. Illia 232,,2421,http://www.lastipasboulevard.com.ar/,-30.709913,-62.004292,Precisa,INCAA / SInCA,Cine,2,300,Privada,No,2022
14098230,14,14098,Salas de cine,Córdoba,Rio Cuarto,Río Cuarto,Centro Cultural Leonardo Favio,Buenos Aires 55,,5800,http://www.cba.gov.ar/,-33.124306,-64.349166,Precisa,INCAA / SInCA,Cine,1,219,Pública,No,2022
14098230,14,14098,Salas de cine,Córdoba,Rio Cuarto,Río Cuarto,Cines Del Paseo,Av. Mugnaini Y Sobremonte,,5800,http://cba.gov.ar,-33.118053,-64.346569,Precisa,INCAA / SInCA,Cine,4,955,Privada,No,2022
14161150,14,14161,Salas de cine,Córdoba,Tercero Arriba,Río Tercero,Strike,Velez Sarfield 143,,5850,http://cinemastrike.com.ar/,-32.173616,-64.112293,Precisa,INCAA / SInCA,Cine,2,400,Privada,No,2022
14021250,14,14021,Salas de cine,Córdoba,Colón,Salsipuedes,Dinosaurio Mall Salsipuedes,Av. Sarmiento 1007,,5113,http://www.cinesdinomall.com.ar,-31.126828,-64.296023,Precisa,INCAA / SInCA,Cine,2,322,Privada,No,2022
14140360,14,14140,Salas de cine,Córdoba,San Justo,San Francisco,Las Tipas San Francisco,Iturraspe 1448,,2400,http://www.nuevocineradar.com.ar/,-31.429048,-62.082118,Precisa,INCAA / SInCA,Cine,3,620,Privada,No,2022
14021280,14,14021,Salas de cine,Córdoba,Colón,Unquillo,Espacio Incaa Unquillo,San Martin 1505,,5109,http://www.unquillo.gov.ar/,-31.2376037,-64.3120955,Precisa,INCAA / SInCA,Cine,1,220,Pública,Si,2022
14098290,14,14098,Salas de cine,Córdoba,Rio Cuarto,Vicuña Mackenna,Sala C.E.Y.A.L,Av. Carlos S. Yde 1056,,6140,,-33.92201,-64.391679,Precisa,INCAA / SInCA,Cine,1,850,Privada,No,2022
14021290,14,14021,Salas de cine,Córdoba,Colón,Villa Allende,Showcase Villa Allende,Rio De Janeiro 1725,,5105,https://www.todoshowcase.com/,-31.29374,-64.290766,Precisa,INCAA / SInCA,Cine,3,563,Privada,No,2022
14091250,14,14091,Salas de cine,Córdoba,Punilla,Villa Carlos Paz,Holiday Cines,9 De Julio 53,,5152,https://www.holidaycinemas.com.ar/,-31.42071,-64.499959,Precisa,INCAA / SInCA,Cine,4,1000,Privada,No,2022
14119210,14,14119,Salas de cine,Córdoba,Rio Segundo,Villa del Rosario,Cine General Paz,Sarmiento 731,,5963,,-31.553891,-63.53414,Precisa,INCAA / SInCA,Cine,1,412,Privada,No,2022
14133200,14,14133,Salas de cine,Córdoba,San Javier,Villa Dolores,Eter Cine,Felipe Erdman 145,,5870,http://www.etercine3d.com.ar/,-31.944437,-65.192108,Precisa,INCAA / SInCA,Cine,2,400,Privada,No,2022
14042170,14,14042,Salas de cine,Córdoba,General San Martin,Villa María,Centro Cultural Leonardo Favio,Av. Sabattini 200,,5900,http://www.villamaria.gob.ar,-32.410815,-63.248169,Precisa,INCAA / SInCA,Cine,1,200,Pública,Si,2022
14042170,14,14042,Salas de cine,Córdoba,General San Martin,Villa María,Sudcinemas,"Ruta Nacional 158 Km 155,5",,5900,http://sudcinemas.com.ar/,-32.41003,-63.262294,Precisa,INCAA / SInCA,Cine,4,800,Privada,No,2022
14014010,14,14014,Salas de cine,Córdoba,Capital,Villa Rivera Indarte,Sunstar Cordoba,Ricardo Rojas 9200,,5008,http://www.cinesunstar.com/,-31.335765,-64.289746,Precisa,INCAA / SInCA,Cine,6,1398,Privada,No,2022
18007010,18,18007,Salas de cine,Corrientes,Bella Vista,Bella Vista,Fantasio,Salta 1059,,3432,https://www.facebook.com/CineFantasioBellaVista/,-28.508494,-59.045464,Precisa,INCAA / SInCA,Cine,1,240,Privada,No,2022
18021020,18,18021,Salas de cine,Corrientes,Capital,Corrientes,Cinemacenter Corrientes,Av. Pedro Ferre y Chacabuco,,3400,http://www.cinemacenter.com.ar/,-27.46464,-58.810635,Precisa,INCAA / SInCA,Cine,5,1140,Privada,No,2022
18021020,18,18021,Salas de cine,Corrientes,Capital,Corrientes,De La Costa Costanera,Carlos Pellegrini 451/311,,3400,http://www.loscinesdelacosta.com.ar/,-27.464752,-58.843015,Precisa,INCAA / SInCA,Cine,2,358,Privada,No,2022
18021020,18,18021,Salas de cine,Corrientes,Capital,Corrientes,De La Costa Shopping,Av. Centenario 3535,,3400,http://www.loscinesdelacosta.com.ar/,-27.481359,-58.766998,Precisa,INCAA / SInCA,Cine,4,562,Privada,No,2022
18035020,18,18035,Salas de cine,Corrientes,Curuzú Cuatiá,Curuzú Cuatiá,Sociedad Rural,Beron De Astrada 641,,3460,http://cinedelarural.com.ar,-29.790473,-58.054474,Precisa,INCAA / SInCA,Cine,1,300,Privada,No,2022
18070020,18,18070,Salas de cine,Corrientes,Goya,Goya,Cines del Litoral Goya,España 659,,3450,,-29.144283,-59.266741,Precisa,INCAA / SInCA,Cine,2,370,Privada,No,2022
18119030,18,18119,Salas de cine,Corrientes,Paso de los Libres,Paso de los Libres,Cine Teatro Opera,Los 108 941,,3230,https://www.facebook.com/pg/Cineoperacorrientes/,-29.7137101,-57.0855601,Precisa,INCAA / SInCA,Cine,1,200,Privada,No,2022
30049040,30,30049,Salas de cine,Entre Ríos,Gualeguay,Gualeguay,Cine Boulevard,Av. Illia Y Chocho Vivanco,,2840,Facebook: Cine Boulevard,-33.127799,-59.322437,Precisa,INCAA / SInCA,Cine,2,440,Privada,No,2022
30028010,30,30028,Salas de cine,Entre Ríos,Federacion,Chajarí,Cine Gran Libertad,3 De Febrero 3060,,3228,,-30.759415,-57.984929,Precisa,INCAA / SInCA,Cine,1,400,Privada,No,2022
30008020,30,30008,Salas de cine,Entre Ríos,Colon,Colón,Starlight Cinema Digital,Calle 12 De Abril 287,,3280,https://www.facebook.com/StarlightCineColon/,-32.22154,-58.138713,Precisa,INCAA / SInCA,Cine,2,154,Privada,No,2022
30098040,30,30098,Salas de cine,Entre Ríos,Uruguay,Concepción del Uruguay,Cine Teatro San Martin,Estrada 820,,3260,https://www.facebook.com/cinesanmartin/,-32.48,-58.235156,Precisa,INCAA / SInCA,Cine,1,457,Privada,No,2022
30015060,30,30015,Salas de cine,Entre Ríos,Concordia,Concordia,Teatro Gran Odeon,Entre Rios 567,,3200,http://www.fundacionodeon.com.ar,-31.398151,-58.018999,Precisa,INCAA / SInCA,Cine,1,664,Privada,No,2022
30049040,30,30049,Salas de cine,Entre Ríos,Gualeguay,Gualeguay,Altos Del Gualeguay,Rocamora 33,,2840,https://www.facebook.com/pg/CineAltosDeGualeguay,-33.150323,-59.311609,Precisa,INCAA / SInCA,Cine,1,198,Privada,No,2022
30056070,30,30056,Salas de cine,Entre Ríos,Gualeguaychu,Gualeguaychú,Cinema Gualeguaychu,25 De Mayo 1383,,2820,http://cinemagualeguaychu.com,-33.009937,-58.525474,Precisa,INCAA / SInCA,Cine,1,330,Privada,No,2022
30084160,30,30084,Salas de cine,Entre Ríos,Parana,Paraná,Cine Circulo Obrero,Andres Pazos 339,,3100,https://www.cinecirculo.com.ar/,-31.732929,-60.524631,Precisa,INCAA / SInCA,Cine,2,300,Privada,No,2022
30008090,30,30008,Salas de cine,Entre Ríos,Colon,San José,Cine Urquiza,25 De Mayo 1849,,3283,http://www.cineurquiza.com.ar,-32.212515,-58.217901,Precisa,INCAA / SInCA,Cine,1,250,Privada,No,2022
30105060,30,30105,Salas de cine,Entre Ríos,Victoria,Victoria,Sala Municipal Cine Teatro Victoria,Alem 64,,3153,,-32.6202247,-60.1572386,Precisa,INCAA / SInCA,Cine,1,299,Pública,Si,2022
30113080,30,30113,Salas de cine,Entre Ríos,Villaguay,Villaguay,Cine Teatro Berisso,San Martin 540,,3240,https://www.facebook.com/pg/CineBerisso/,-31.865115,-59.027433,Precisa,INCAA / SInCA,Cine,1,350,Privada,No,2022
34014020,34,34014,Salas de cine,Formosa,Formosa,Formosa,El Pajarito Avenida,Av. Juan Domingo Peron 757,,3600,https://www.facebook.com/Cines-Avenida-112830095434025/,-26.169497,-58.181483,Precisa,INCAA / SInCA,Cine,3,619,Privada,No,2022
38042040,38,38042,Salas de cine,Jujuy,Palpala,Palpala,Cine Teatro Altos Hornos Zapla,Av. Rio De La Plata 383,,4612,https://www.facebook.com/pg/CineAHZ,-24.2575926,-65.213095,Precisa,INCAA / SInCA,Cine,1,1100,Privada,No,2022
38021060,38,38021,Salas de cine,Jujuy,Dr. Manuel Belgrano,San Salvador de Jujuy,Cine Auditorium,Independencia Esq. Italia S/N,,4600,https://www.facebook.com/CineAuditoriumJujuyINCAAMercosur/,-24.187252,-65.292851,Precisa,INCAA / SInCA,Cine,1,201,,Si,2022
38021060,38,38021,Salas de cine,Jujuy,Dr. Manuel Belgrano,San Salvador de Jujuy,Cine Teatro Alfa,Patricias Argentinas 360,,4600,https://twitter.com/cineteatroalfa,-24.184494,-65.311156,Precisa,INCAA / SInCA,Cine,2,856,Privada,No,2022
38094050,38,38094,Salas de cine,Jujuy,Tilcara,Tilcara,Barbarita Cruz,Belgrano 547,,4624,https://capectilcara.com/,-23.577105,-65.393961,Precisa,INCAA / SInCA,Cine,1,120,Privada,Si,2022
42105030,42,42105,Salas de cine,La Pampa,Maraco,Gral. Pico,Espacio Incaa-Cine & Teatro Pico,Calle 17 957,,6360,http://www.picocine.com.ar/,-35.6605302,-63.7528695,Precisa,INCAA / SInCA,Cine,1,534,Privada,Si,2022
42105030,42,42105,Salas de cine,La Pampa,Maraco,Gral. Pico,Gran Pampa,Calle 20 642,,6360,,-35.658982,-63.753935,Precisa,INCAA / SInCA,Cine,1,730,Privada,No,2022
42021020,42,42021,Salas de cine,La Pampa,Capital,Santa Rosa,Amadeus,Coronel Gil 31,,6300, www.cineamadeus.com.ar/,-36.619904,-64.289902,Precisa,INCAA / SInCA,Cine,1,223,Privada,No,2022
42021020,42,42021,Salas de cine,La Pampa,Capital,Santa Rosa,Milenium,Escalante 270,,6300,,-36.623122,-64.294797,Precisa,INCAA / SInCA,Cine,1,352,Privada,No,2022
42021020,42,42021,Salas de cine,La Pampa,Capital,Santa Rosa,Sala Auditorio Juan C. Bustriazo Ortiz,Quintana 172,,6300,Facebook: Espacio INCAA Santa Rosa,-36.6188275,-64.2933999,Precisa,INCAA / SInCA,Cine,1,118,Pública,Si,2022
46007010,46,46007,Salas de cine,La Rioja,Arauco,Aimogasta,Cine El Progreso,9 De Julio 85,,5310,,-28.5600409,-66.8106825,Aproximada,INCAA / SInCA,Cine,1,285,,No,2022
46042010,46,46042,Salas de cine,La Rioja,Chilecito,Chilecito,Cinema 3D Chilecito,La Plata y 19 De Febrero,,5360,http://cinema3dlarioja.com/,-29.163011,-67.495688,Precisa,INCAA / SInCA,Cine,2,216,Privada,No,2022
46014010,46,46014,Salas de cine,La Rioja,Capital,La Rioja,Cinema 3D Pelagio B. Luna,Pelagio Luna 960,,5300,http://cinema3dlarioja.com/,-29.412799,-66.861693,Precisa,INCAA / SInCA,Cine,2,292,Privada,No,2022
46014010,46,46014,Salas de cine,La Rioja,Capital,La Rioja,Cinema 3D San Martin,San Martin 62,,5300,http://cinema3dlarioja.com/,-29.41478,-66.857701,Precisa,INCAA / SInCA,Cine,1,72,Privada,No,2022
46014010,46,46014,Salas de cine,La Rioja,Capital,La Rioja,Cinemacenter La Rioja,Av. Abel Bazan Y Bustos 710,,5300,http://www.cinemacenter.com.ar/,-29.41152524,-66.85814976,Precisa,INCAA / SInCA,Cine,4,769,Privada,No,2022
46014010,46,46014,Salas de cine,La Rioja,Capital,La Rioja,Espacio 73,Catamarca 73,,5300,http://www.culturalarioja.gob.ar,-29.412852,-66.8593276,Precisa,INCAA / SInCA,Cine,1,128,Pública,Si,2022
50014030,50,50014,Salas de cine,Mendoza,General Alvear,General Alvear,Cineteatro Antonio Lafalla,Av. Alvear Oeste 437,,5620,https://cineteatrolafalla.alvearmendoza.gob.ar/,-34.9783447,-67.6949329,Precisa,INCAA / SInCA,Cine,1,122,Pública,No,2022
50021010,50,50021,Salas de cine,Mendoza,Godoy Cruz,Godoy Cruz,Cinemark Palmares,Ruta Panamericana 2650,,5501,https://www.cinemarkhoyts.com.ar,-32.952537,-68.855684,Precisa,INCAA / SInCA,Cine,10,1681,Privada,No,2022
50049050,50,50049,Salas de cine,Mendoza,Las Heras,Las Heras,Tadicor Las Heras,Juan Dragui Lucero 1450,,5539,http://www.tadicor.com/Cines.php,-32.853189,-68.808148,Precisa,INCAA / SInCA,Cine,2,284,Privada,No,2022
50070060,50,50070,Salas de cine,Mendoza,Maipu,Maipú,Cine Teatro Imperial,Pablo Pescara Y Peron,,5515,https://www.facebook.com/pg/Cineteatroimperial/,-32.98293032,-68.78722763,Precisa,INCAA / SInCA,Cine,1,600,Privada,Si,2022
50070060,50,50070,Salas de cine,Mendoza,Maipu,Maipú,Cinepolis Arena Maipu,Emilio Civit Y Maza,,5515,https://www.villagecines.com/,-32.974843,-68.796178,Precisa,INCAA / SInCA,Cine,5,949,Privada,No,2022
50077040,50,50077,Salas de cine,Mendoza,Malargue,Malargüe,Sala Maiten,Ruta 40 Norte Y Pje Orteguina,,5613,https://www.malargue.gov.ar/,-35.48035,-69.58467,Precisa,INCAA / SInCA,Cine,1,160,Pública,No,2022
50007010,50,50007,Salas de cine,Mendoza,Capital,Mendoza,Cine Universidad,Juan Agustín Maza 250,,5500,http://cine.uncuyo.edu.ar/,-32.888547,-68.837395,Precisa,INCAA / SInCA,Cine,2,350,Pública,No,2022
50007010,50,50007,Salas de cine,Mendoza,Capital,Mendoza,Cinemacenter Mendoza,Las Cañas 1833,,5519,http://www.cinemacenter.com.ar/,-32.912576,-68.820262,Precisa,INCAA / SInCA,Cine,6,1361,Privada,No,2022
50007010,50,50007,Salas de cine,Mendoza,Capital,Mendoza,Cinepolis Mendoza,Av. Acceso Este 3280 Lateral Norte,,5521,https://www.villagecines.com/,-32.902037,-68.798003,Precisa,INCAA / SInCA,Cine,10,2344,Privada,No,2022
50007010,50,50007,Salas de cine,Mendoza,Capital,Mendoza,Microcine Municipal David Eisenchlas,9 De Julio 500,Subsuelo,5500,,-32.896563,-68.842488,Precisa,INCAA / SInCA,Cine,1,115,Pública,No,2022
50007010,50,50007,Salas de cine,Mendoza,Capital,Mendoza,Porky`S,Lavalle 32,Piso 1,5500,,-32.888518,-68.838264,Precisa,INCAA / SInCA,Cine,1,70,Privada,No,2022
50084140,50,50084,Salas de cine,Mendoza,Rivadavia,Rivadavia,Centro Cultural Juan Centorbi,Lavalle 740,,5577,,-33.193378,-68.46537,Precisa,INCAA / SInCA,Cine,1,963,Pública,No,2022
50098100,50,50098,Salas de cine,Mendoza,San Martin,San Martín,Cine Cervantes San Martin,9 De Julio 187,,5570,http://www.cinecervantes.com,-33.080928,-68.471596,Precisa,INCAA / SInCA,Cine,1,328,Privada,No,2022
50098100,50,50098,Salas de cine,Mendoza,San Martin,San Martín,Tadicor San Martin,Lateral Sur Ruta Nacional 7 Sin Nro,,5570,htpp:/www.tadicor.com sección cines ,-32.853468,-68.808184,Precisa,INCAA / SInCA,Cine,2,302,Privada,No,2022
50105210,50,50105,Salas de cine,Mendoza,San Rafael,San Rafael,Centro Cultural San Rafael del Diamante,Av. Hipolito Yrigoyen 280,,5600,https://www.facebook.com/TeatroRomaSanRafael,-34.6148225,-68.3331498,Precisa,INCAA / SInCA,Cine,1,690,Pública,Si,2022
50105210,50,50105,Salas de cine,Mendoza,San Rafael,San Rafael,Cine Amelix,San Martin 139,,5600,https://www.facebook.com/CineAmelix/,-34.614613,-68.329305,Precisa,INCAA / SInCA,Cine,2,359,Privada,No,2022
50126060,50,50126,Salas de cine,Mendoza,Tupungato,Tupungato,Cinema Américo,La Gloria 1777,,5561,https://www.facebook.com/Cinemaamericotupungatomendoza,-33.3494216,-69.1512149,Precisa,INCAA / SInCA,Cine,1,113,Privada,No,2022
54091080,54,54091,Salas de cine,Misiones,Obera,Oberá,Cine Teatro Obera,San Martin 1069,,3360,https://www.facebook.com/CineTeatroObera/,-27.488208,-55.122305,Precisa,INCAA / SInCA,Cine,1,220,Pública,Si,2022
54091080,54,54091,Salas de cine,Misiones,Obera,Oberá,Microcines Obera,Av. Sarmiento 1044,,3360,www.cinescasinoobera.com.ar/,-27.48614,-55.123172,Precisa,INCAA / SInCA,Cine,2,292,Privada,No,2022
54028030,54,54028,Salas de cine,Misiones,Capital,Posadas,Imax Del Conocimiento,Ruta 12 Y Acceso Oeste (Av. Ulises Lopez),,3300,https://www.parquedelconocimiento.com/,-27.396198,-55.963477,Precisa,INCAA / SInCA,Cine,1,546,Pública,No,2022
54028030,54,54028,Salas de cine,Misiones,Capital,Posadas,Sunstar Posadas,Bolivar 1979,,3300,http://www.cinesunstar.com/,-27.366775,-55.895626,Precisa,INCAA / SInCA,Cine,4,559,Privada,No,2022
58035070,58,58035,Salas de cine,Neuquén,Confluencia,Neuquén,Cinemark Neuquén,Av. Dr. Ramón 355,,8300,https://www.cinemarkhoyts.com.ar/,-38.9420114,-68.064777,Precisa,INCAA / SInCA,Cine,6,1113,Privada,No,2022
58091040,58,58091,Salas de cine,Neuquén,Pehuenches,Rincón de Los Sauces,Auditorio Casa de la Cultura,Perón y 20 de Diciembre,,8319,Facebook: Cine Casa de la Cultura Rincón de los Sauces,-37.389866,-68.923387,Precisa,INCAA / SInCA,Cine,1,98,Pública,No,2022
58035040,58,58035,Salas de cine,Neuquén,Confluencia,Cutral-Co,Cine Rex Cutral Co,Av. Del Trabajo 676,,8200,http://www.cinerexcutralco.com.ar,-38.937145,-69.228886,Precisa,INCAA / SInCA,Cine,1,290,Privada,No,2022
58035070,58,58035,Salas de cine,Neuquén,Confluencia,Neuquén,Cine Teatro Español,Av. Argentina 245,,8300,https://www.facebook.com/cineteatronqn/,-38.952502,-68.0588685,Precisa,INCAA / SInCA,Cine,1,639,Privada,Si,2022
58035070,58,58035,Salas de cine,Neuquén,Confluencia,Neuquén,Cinepolis Neuquen,Av. Antartida Argentina 1111,,8300,https://www.villagecines.com/,-38.947535,-68.080141,Precisa,INCAA / SInCA,Cine,7,1894,Privada,No,2022
58056010,58,58056,Salas de cine,Neuquén,Lacar,San Martín de los Andes,Centro Cultural Cotesma,Gral. Roca 1154,,8370,http://centrocultural.cotesma.com.ar,-40.157383,-71.3518372,Precisa,INCAA / SInCA,Cine,2,398,Privada,Si,2022
58112040,58,58112,Salas de cine,Neuquén,Zapala,Zapala,Cine Teatro Municipal Amado Sapag,San Martin 281,,8340,Facebook: Cine Teatro de Zapala,-38.9035456,-70.0649182,Precisa,INCAA / SInCA,Cine,1,738,Pública,Si,2022
62042400,62,62042,Salas de cine,Río Negro,General Roca,Cipolletti,Lorenzo Kelly,Fernandez Oro 55,PISO 1,8324,https://ccc.cipolletti.gob.ar/,-38.940545,-68.0012023,Precisa,INCAA / SInCA,Cine,1,140,Pública,Si,2022
62021060,62,62021,Salas de cine,Río Negro,Bariloche,Bariloche,Sunstar Bariloche,Onelli 447,,8400,http://www.cinesunstar.com/,-41.133472,-71.310278,Precisa,INCAA / SInCA,Cine,3,461,Privada,No,2022
62042390,62,62042,Salas de cine,Río Negro,General Roca,Cinco Saltos,Cine Teatro Español,Av. Roca 326,,8303,https://www.facebook.com/cineespanolCS/,-38.828301,-68.064467,Precisa,INCAA / SInCA,Cine,1,320,Privada,Si,2022
62042450,62,62042,Salas de cine,Río Negro,General Roca,Gral. Roca,Cine Rex Gral. Roca,Av. Roca 1585,,8332,http://cinerexroca.com.ar,-39.027377,-67.575436,Precisa,INCAA / SInCA,Cine,2,300,Privada,No,2022
62007090,62,62007,Salas de cine,Río Negro,Adolfo Alsina,Viedma,Cine Rex Viedma,Gallardo 160,,8500,https://cines.com/argentina/cine-gama/,-40.810812,-62.988497,Precisa,INCAA / SInCA,Cine,1,350,Privada,No,2022
62042560,62,62042,Salas de cine,Río Negro,General Roca,Villa Regina,Cine Teatro Circulo Italiano,Av. Rivadavia 117,,8336,http://cineteatrocirculo.com.ar/,-39.09326355,-67.08392556,Precisa,INCAA / SInCA,Cine,1,661,Privada,Si,2022
66126070,66,66126,Salas de cine,Salta,Oran,Orán,Cine Municipal De La Cultura Oran,Hipolito Yrigoyen 137,,4530,,-23.1351322,-64.3222154,Precisa,INCAA / SInCA,Cine,1,280,Pública,Si,2022
66028050,66,66028,Salas de cine,Salta,Capital,Salta,Cine Opera,Urquiza 560,,4400,http://cineoperasalta.com.ar/,-24.792403,-65.410758,Precisa,INCAA / SInCA,Cine,2,682,Privada,No,2022
66028050,66,66028,Salas de cine,Salta,Capital,Salta,Cine Rex,Av. San Martin 1170,,4400,,-24.792967,-65.419175,Precisa,INCAA / SInCA,Cine,2,353,Privada,No,2022
66028050,66,66028,Salas de cine,Salta,Capital,Salta,Cinemark Salta,Av. Monseñor Tavella 4400,,4400,https://www.cinemarkhoyts.com.ar,-24.832302,-65.428458,Precisa,INCAA / SInCA,Cine,5,897,Privada,No,2022
66028050,66,66028,Salas de cine,Salta,Capital,Salta,Hoyts Nuevo Noa,Virrey Toledo 702,,4400,https://www.cinemarkhoyts.com.ar/,-24.781472,-65.403547,Precisa,INCAA / SInCA,Cine,8,1362,Privada,No,2022
66112040,66,66112,Salas de cine,Salta,Metán,San José de Metán,Cine Club Center,20 De Febrero 19,piso 1,4440,https://www.facebook.com/cinecentermetan/,-25.4998463,-64.974178,Precisa,INCAA / SInCA,Cine,1,80,Privada,No,2022
66056220,66,66056,Salas de cine,Salta,Grl. Jose de San Martin,Tartagal,Open Plaza,Guemes 421,,4560, http://www.cineopenplaza.com.ar,-22.515933,-63.805018,Precisa,INCAA / SInCA,Cine,1,220,Privada,No,2022
70028010,70,70028,Salas de cine,San Juan,Capital,San Juan,Cinemacenter San Juan,Av. Circunvalacion Y Scalabrini Ortiz,,5400,http://www.cinemacenter.com.ar/,-31.522593,-68.542604,Precisa,INCAA / SInCA,Cine,8,1803,Privada,No,2022
70028010,70,70028,Salas de cine,San Juan,Capital,San Juan,CPM Espacio San Juan,Av. Jose Ignacio De La Roza Oeste 806,,5417,https://cpmcines.com/,-31.539871,-68.572839,Precisa,INCAA / SInCA,Cine,5,849,Privada,No,2022
70028010,70,70028,Salas de cine,San Juan,Capital,San Juan,Play Cinema San Juan,Av. Libertador 1826 (Oeste),,5400,http://www.playcinema.net/,-31.531766,-68.551432,Precisa,INCAA / SInCA,Cine,6,1071,Privada,No,2022
70028010,70,70028,Salas de cine,San Juan,Capital,San Juan,UPCN - San Juan,Sarmiento 461 Sur,,5400,http://www.upcndigital.org/san-juan,-31.52639,-68.533644,Precisa,INCAA / SInCA,Cine,1,298,Privada,No,2022
74049060,74,74049,Salas de cine,San Luis,Junin,Merlo,Cine Star Merlo,Av. Del Sol 1120,,5881,https://www.facebook.com/CineStarMerlo/,-32.346991,-64.998214,Precisa,INCAA / SInCA,Cine,1,100,Privada,No,2022
74056150,74,74056,Salas de cine,San Luis,La Capital,San Luis,Cinemacenter San Luis,J. A. Roca 260,,5700,http://www.cinemacenter.com.ar/,-33.309224,-66.327647,Precisa,INCAA / SInCA,Cine,7,1951,Privada,No,2022
74035070,74,74035,Salas de cine,San Luis,General Pedernera,Villa Mercedes,Cines Fenix,Pueyrredon 1651,,5730,http://www.cinesfenix.com,-33.663019,-65.464344,Precisa,INCAA / SInCA,Cine,3,475,Privada,No,2022
78014010,78,78014,Salas de cine,Santa Cruz,Deseado,Caleta Olivia,Cine Municipal Caleta Olivia,J. Newbery y Deocarets S/N,Piso 1,9011,https://www.mechenien.org.ar/,-46.437506,-67.52675,Precisa,INCAA / SInCA,Cine,1,350,Privada,Si,2022
78007010,78,78007,Salas de cine,Santa Cruz,Corpen Aike,Comandante Luis Piedrabuena,Cine Select,Av. Gregorio Ibañez 388,,9303,https://www.facebook.com/multiespacioselect,-49.983691,-68.909210,Precisa,INCAA / SInCA,Cine,1,288,Pública,Si,2022
78049020,78,78049,Salas de cine,Santa Cruz,Rio Chico,Gobernador Gregores,Cine Municipal Abuelas de Plaza de Mayo,Av. San Martin 514,,9311,http://www.santacruz.gob.ar,-48.750801,-70.246605,Precisa,INCAA / SInCA,Cine,1,80,Pública,No,2022
78014060,78,78014,Salas de cine,Santa Cruz,Las Heras,Las Heras,Osvaldo Jorge Bayer,13 De Diciembre Y Malvinas S/N,,9017,https://www.facebook.com/pg/centroculturallasheras,-46.538589,-68.944153,Precisa,INCAA / SInCA,Cine,1,196,Privada,No,2022
78014080,78,78014,Salas de cine,Santa Cruz,Deseado,Puerto Deseado,"Cine Auditorio Deseado ""ESPACIO INCAA""",Don Bosco 1075,,9050,https://www.facebook.com/CineDeseado/,-47.7520538,-65.8951281,Precisa,INCAA / SInCA,Cine,1,142,Privada,Si,2022
78042010,78,78042,Salas de cine,Santa Cruz,Magallanes,Puerto San Julian,Cine Teatro Talia,25 De Mayo 1188,,9310,https://www.facebook.com/pg/cineteatrotalia,-49.315227,-67.722103,Precisa,INCAA / SInCA,Cine,1,340,Privada,Si,2022
78007020,78,78007,Salas de cine,Santa Cruz,Corpen Aike,Puerto Santa Cruz,Auditorio Municipal,25 De Mayo 513,,9300,https://www.facebook.com/CineMPSC/,-50.016472,-68.517896,Precisa,INCAA / SInCA,Cine,1,150,Pública,No,2022
78021040,78,78021,Salas de cine,Santa Cruz,Guer Aike,Río Gallegos,Cine Rio Gallegos,Av. Nestor Kirchner 1142,,9400,http://www.cineriogallegos.com.ar/,-51.619917,-69.218735,Precisa,INCAA / SInCA,Cine,3,290,Privada,No,2022
82049020,82,82049,Salas de cine,Santa Fe,General Obligado,Avellaneda,Luna De Avellaneda,Av. San Martin 810,,3561,http://www.cinelunadeavellaneda.com,-29.118061,-59.654853,Precisa,INCAA / SInCA,Cine,1,299,Privada,No,2022
82014050,82,82014,Salas de cine,Santa Fe,Caseros,Casilda,Cine Teatro Libertador,Buenos Aires 2441,,2170,http://www.cinelibertador.com.ar,-33.046245,-61.169568,Precisa,INCAA / SInCA,Cine,1,1014,Privada,No,2022
82070050,82,82070,Salas de cine,Santa Fe,Las Colonias,Esperanza,E-Max Cines,Brigadier Lopez 1471,,3080,http://www.e-max.com.ar,-31.450826,-60.895483,Precisa,INCAA / SInCA,Cine,3,584,Privada,No,2022
82021310,82,82021,Salas de cine,Santa Fe,Castellanos,Rafaela,Cine Teatro Municipal Manuel Belgrano,Bv. Santa Fe 555,,2300,http://www.rafaela.gob.ar/cine/,-31.2537076,-61.4856456,Precisa,INCAA / SInCA,Cine,1,1049,Pública,Si,2022
82021310,82,82021,Salas de cine,Santa Fe,Castellanos,Rafaela,Las Tipas Rafaela,C. Conscripto Zurbriggen 865,,2300,www.lastipasrafaela.com.ar/,-31.242567,-61.505319,Precisa,INCAA / SInCA,Cine,4,920,Privada,No,2022
82049180,82,82049,Salas de cine,Santa Fe,General Obligado,Reconquista,Cine Recite,Habegger 755,,3560,http://www.cinerecite.com.ar,-29.148596,-59.642839,Precisa,INCAA / SInCA,Cine,1,156,Privada,No,2022
82084270,82,82084,Salas de cine,Santa Fe,Rosario,Rosario,Arteon,Sarmiento 778,Planta Alta,2000,http://www.arteon.com.ar/,-32.946182,-60.638166,Precisa,INCAA / SInCA,Cine,1,186,Privada,Si,2022
82084270,82,82084,Salas de cine,Santa Fe,Rosario,Rosario,Centro Cultural Cine Lumiere,Velez Sarfield 1029,,2000,http://www.lumiererosario.gob.ar,-32.924992,-60.677156,Precisa,INCAA / SInCA,Cine,1,420,Pública,No,2022
82084270,82,82084,Salas de cine,Santa Fe,Rosario,Rosario,Cinepolis Rosario,Eva Peron 5856,,2000,https://www.villagecines.com/,-32.933053,-60.712949,Precisa,INCAA / SInCA,Cine,13,3458,Privada,No,2022
82084270,82,82084,Salas de cine,Santa Fe,Rosario,Rosario,Cines Del Centro,Rioja 1660,Planta Alta,2000,,-32.946177,-60.646324,Precisa,INCAA / SInCA,Cine,4,659,Privada,No,2022
82084270,82,82084,Salas de cine,Santa Fe,Rosario,Rosario,El Cairo,Santa Fe 1120,,2000,http://elcairocinepublico.gob.ar/,-32.95144,-60.639437,Precisa,INCAA / SInCA,Cine,1,442,Pública,No,2022
82084270,82,82084,Salas de cine,Santa Fe,Rosario,Rosario,Hoyts Rosario,Nansen 323,,2000,https://www.cinemarkhoyts.com.ar/,-32.909461,-60.683084,Precisa,INCAA / SInCA,Cine,9,1911,Privada,No,2022
82084270,82,82084,Salas de cine,Santa Fe,Rosario,Rosario,Microcine De La Cortada,Ctda Ricardone 1244,,2000,,-32.94773,-60.640286,Precisa,INCAA / SInCA,Cine,1,96,Privada,No,2022
82084270,82,82084,Salas de cine,Santa Fe,Rosario,Rosario,Monumental Rosario,San Martin 993,,2000,https://www.multiplex.com.ar/,-32.94899,-60.637338,Precisa,INCAA / SInCA,Cine,9,1471,Privada,No,2022
82084270,82,82084,Salas de cine,Santa Fe,Rosario,Rosario,Showcase Rosario,Junin 501,,2000,https://www.todoshowcase.com/,-32.926503,-60.670806,Precisa,INCAA / SInCA,Cine,14,3391,Privada,No,2022
82042220,82,82042,Salas de cine,Santa Fe,General Lopez,Rufino,Sala Hispano,Av. Cobo 185,Planta Alta,6100,,-34.2630949,-62.71155166,Precisa,INCAA / SInCA,Cine,1,330,Pública,Si,2022
82126140,82,82126,Salas de cine,Santa Fe,San Martin,San Jorge,Las Tipas San Jorge,Eva Peron 1388,,2451,http://www.lastipassanjorge.com.ar/,-31.895262,-61.8595,Precisa,INCAA / SInCA,Cine,1,260,Privada,No,2022
82021340,82,82021,Salas de cine,Santa Fe,Castellanos,San Vicente,Brown Cinema 3D,Cangallo 304,,2447,http://browncinema3d.com.ar/,-31.698952,-61.567196,Precisa,INCAA / SInCA,Cine,1,224,Privada,No,2022
82063170,82,82063,Salas de cine,Santa Fe,La Capital,Santa Fe,Cine America,25 De Mayo 3075,,3000,,-31.640525,-60.70422,Precisa,INCAA / SInCA,Cine,1,380,Privada,No,2022
82063170,82,82063,Salas de cine,Santa Fe,La Capital,Santa Fe,Cinemark Santa Fe,Dique 1 Puerto Santa Fe,,3000,https://www.cinemarkhoyts.com.ar,-31.648852,-60.70404,Precisa,INCAA / SInCA,Cine,7,1527,Privada,No,2022
82042290,82,82042,Salas de cine,Santa Fe,General Lopez,Venado Tuerto,Cinema Casey,Av. Casey 790,Piso 1,2600,http://cinemacasey.com.ar,-33.746371,-61.968125,Precisa,INCAA / SInCA,Cine,2,249,Privada,No,2022
86035090,86,86035,Salas de cine,Santiago del Estero,Banda,La Banda,Cine Teatro Municipal Renzi,Av. Besares 151,,4300,https://www.facebook.com/CineRenzi/,-27.7317514,-64.2426123,Precisa,INCAA / SInCA,Cine,1,152,Pública,Si,2022
86035090,86,86035,Salas de cine,Santiago del Estero,Banda,La Banda,Cinemacenter La Banda,Aut. Juan D. Peron S/N Parque Industrial,,4200,http://www.cinemacenter.com.ar/,-27.762487,-64.244804,Precisa,INCAA / SInCA,Cine,3,822,Privada,No,2022
86049110,86,86049,Salas de cine,Santiago del Estero,Capital,Santiago del Estero,Sunstar Santiago del Estero,Av. Rivadavia Y Ejercito Argentino,,4200,http://www.cinesunstar.com/,-27.78442,-64.267281,Precisa,INCAA / SInCA,Cine,5,1585,Privada,No,2022
86147130,86,86147,Salas de cine,Santiago del Estero,Rio Hondo,Termas de Río Hondo,Nuevo Cine Rex,Bolivar 15,,4220,http://www.santacruz.gob.ar,-27.496838,-64.85833,Precisa,INCAA / SInCA,Cine,1,233,Privada,No,2022
94007010,94,94007,Salas de cine,Tierra del Fuego,Rio Grande,Río Grande,El Cine,9 De Julio 838,,9420,http://www.cinemas4riogrande.com.ar,-53.790081,-67.697959,Precisa,INCAA / SInCA,Cine,2,584,Privada,No,2022
94014020,94,94014,Salas de cine,Tierra del Fuego,Ushuaia,Ushuaia,Cine Teatro Pakewaia,Yaganes Y Gob Paz (Base Naval),,9410,www.cinepackewaia.com.ar/,-54.801912,-68.302951,Precisa,INCAA / SInCA,Cine,1,300,Privada,No,2022
94014020,94,94014,Salas de cine,Tierra del Fuego,Ushuaia,Ushuaia,Sunstar Ushuaia,Av. Perito Moreno 1460,,9410,http://www.cinesunstar.com/,-54.7999427,-68.2801151,Precisa,INCAA / SInCA,Cine,3,561,Privada,No,2022
90084010,90,90084,Salas de cine,Tucumán,Capital,San Miguel de Tucumán,Atlas Vía 24,24 de Septiembre 757,,4000,https://www.cineatlasweb.com.ar/,-26.8301689,-65.2087418,Precisa,INCAA / SInCA,Cine,2,264,Privada,No,2022
90084010,90,90084,Salas de cine,Tucumán,Capital,San Miguel de Tucumán,Cine Popular San Miguel de Tucumán,Lavalle 688,,4000,,-26.8387931,-65.2094995,Precisa,INCAA / SInCA,Cine,1,50,Privada,No,2022
90084010,90,90084,Salas de cine,Tucumán,Capital,San Miguel de Tucumán,Sala Hynes O´Connor,San Martín 251,,4000,,-26.8302371,-65.2005846,Precisa,INCAA / SInCA,Cine,1,80,Pública,Si,2022
90119030,90,90119,Salas de cine,Tucumán,Yerba Buena,Yerba Buena,Cine Popular de Yerba Buena,Av. Aconquija 2060,,4107,,-26.8123017,-65.3003126,Precisa,INCAA / SInCA,Cine,1,50,Privada,No,2022
90084010,90,90084,Salas de cine,Tucumán,Capital,San Miguel de Tucumán,Atlas Shopping Terminal,Av. Brigido Teran 250,,4000,cineatlasweb.com.ar,-26.834701,-65.194059,Precisa,INCAA / SInCA,Cine,2,219,Privada,No,2022
90084010,90,90084,Salas de cine,Tucumán,Capital,San Miguel de Tucumán,Atlas Tucuman,Monteagudo 250,,4000,cineatlasweb.com.ar,-26.828516,-65.199312,Precisa,INCAA / SInCA,Cine,3,797,Privada,No,2022
90084010,90,90084,Salas de cine,Tucumán,Capital,San Miguel de Tucumán,Cinemacenter Tucuman,Av. Nestor Kirchner(Ex Av. Roca) 3450,Piso 1,4000,http://www.cinemacenter.com.ar/,-26.83447,-65.252298,Precisa,INCAA / SInCA,Cine,5,1051,Privada,No,2022
90084010,90,90084,Salas de cine,Tucumán,Capital,San Miguel de Tucumán,Espacio Incaa Sala Orestes Caviglia,San Martin 251,,4000,https://enteculturaltucuman.gob.ar/,-26.8303703,-65.200703,Precisa,INCAA / SInCA,Cine,1,183,Pública,Si,2022
90084010,90,90084,Salas de cine,Tucumán,Capital,San Miguel de Tucumán,Microcine Orion,Av. Mitre 817,,4000,,-26.817212,-65.215481,Precisa,INCAA / SInCA,Cine,1,36,Pública,No,2022
90119030,90,90119,Salas de cine,Tucumán,Yerba Buena,Yerba Buena,Solar del Cerro,Av. Aconquija 1336,,4107,http://solardelcerro.com,-26.814179,-65.288937,Precisa,INCAA / SInCA,Cine,5,750,Privada,No,2022
90119030,90,90119,Salas de cine,Tucumán,Yerba Buena,Yerba Buena,Sunstar Tucuman,Av. Fermin Carriola 42,,4107,http://www.cinesunstar.com/,-26.820976,-65.265894,Precisa,INCAA / SInCA,Cine,6,1295,Privada,No,2022